OBJECT_NAME,OBJECT_ID,EPOCH,MEAN_MOTION,ECCENTRICITY,INCLINATION,RA_OF_ASC_NODE,ARG_OF_PERICENTER,MEAN_ANOMALY,EPHEMERIS_TYPE,CLASSIFICATION_TYPE,NORAD_CAT_ID,ELEMENT_SET_NO,REV_AT_EPOCH,BSTAR,MEAN_MOTION_DOT,MEAN_MOTION_DDOT
ONEWEB-0236,2021-045AG,2026-06-10T13:24:44.736768,13.15548052,.00020951,87.8998,260.5270,103.0087,257.1278,0,U,48797,999,24338,.29416689E-3,.124E-5,0
ONEWEB-0248,2021-045AH,2026-06-10T13:42:58.965984,13.15547514,.00016152,87.9009,260.5074,113.0779,247.0522,0,U,48798,999,24354,.25104861E-3,.107E-5,0
ONEWEB-0225,2021-045AJ,2026-06-10T14:14:56.855040,13.15548940,.00013781,87.9007,260.5112,104.1013,256.0270,0,U,48799,999,24355,-.57283814E-4,-.9E-7,0
ONEWEB-0215,2021-045AK,2026-06-10T13:31:33.540960,13.15548533,.00012901,87.9011,260.4994,112.7486,247.3780,0,U,48800,999,24342,-.47312777E-3,-.165E-5,0
ONEWEB-0216,2021-045AL,2026-06-10T13:45:17.302752,13.15548675,.00019782,87.9008,260.5126,98.8385,261.2970,0,U,48801,999,24343,.28916291E-3,.122E-5,0
ONEWEB-0239,2021-045AM,2026-06-10T12:02:36.152448,13.15548406,.00014337,87.8999,260.5337,123.0504,237.0764,0,U,48802,999,24346,.49032967E-3,.197E-5,0
ONEWEB-0249,2021-060A,2026-06-10T14:14:08.547936,13.16595081,.00020099,87.9101,230.0874,101.9869,258.1488,0,U,48967,999,23874,-.10914667E-3,-.29E-6,0
ONEWEB-0250,2021-060B,2026-06-10T14:10:54.116832,13.25833207,.0002629,87.9100,227.8656,119.5986,240.5412,0,U,48968,999,23934,.7289115E-5,.16E-6,0
ONEWEB-0252,2021-060D,2026-06-10T14:58:35.791968,13.16593187,.00019546,87.9099,230.0734,92.4622,267.6733,0,U,48970,999,23879,-.9943616E-5,.9E-7,0
ONEWEB-0253,2021-060E,2026-06-10T14:42:38.146464,13.16593442,.00020405,87.9099,230.0812,102.4348,257.7011,0,U,48971,999,23872,-.11367088E-3,-.31E-6,0
ONEWEB-0254,2021-060F,2026-06-10T03:59:42.514656,13.16593876,.000181,87.9102,230.1671,106.2333,253.8997,0,U,48972,999,23866,.18068E-3,.82E-6,0
ONEWEB-0255,2021-060G,2026-06-10T14:01:36.327936,13.16594588,.00018655,87.9100,230.0910,101.2140,258.9201,0,U,48973,999,23879,-.63436956E-4,-.11E-6,0
ONEWEB-0256,2021-060H,2026-06-10T14:39:12.311424,13.16593181,.00021196,87.9093,230.0902,96.1401,263.9972,0,U,48974,999,23876,-.14279956E-3,-.42E-6,0
ONEWEB-0257,2021-060J,2026-06-10T13:36:31.108608,13.16594301,.00018944,87.9101,230.0857,97.4096,262.7250,0,U,48975,999,23871,.1398121E-3,.66E-6,0
ONEWEB-0258,2021-060K,2026-06-10T13:38:48.107040,13.16594109,.00020311,87.9100,230.0972,100.6584,259.4776,0,U,48976,999,23872,.95763836E-4,.49E-6,0
ONEWEB-0259,2021-060L,2026-06-10T13:29:41.256384,13.16594226,.00019751,87.9100,230.0978,104.1002,256.0349,0,U,48977,999,23875,.13223323E-3,.63E-6,0
ONEWEB-0260,2021-060M,2026-06-10T15:06:34.232832,13.16593572,.00020705,87.9093,230.0864,87.7413,272.3955,0,U,48978,999,23874,.15913663E-3,.74E-6,0
ONEWEB-0261,2021-060N,2026-06-10T14:23:14.360064,13.16595678,.00016926,87.9096,230.0920,97.2954,262.8369,0,U,48979,999,23879,-.24948839E-3,-.83E-6,0
ONEWEB-0262,2021-060P,2026-06-10T13:54:45.773280,13.16594624,.00019671,87.9100,230.0818,106.8971,253.2376,0,U,48980,999,23875,.34871286E-4,.26E-6,0
ONEWEB-0263,2021-060Q,2026-06-10T14:40:21.545472,13.16594411,.0001701,87.9097,230.0872,101.7519,258.3803,0,U,48981,999,23872,-.21646176E-3,-.7E-6,0
ONEWEB-0264,2021-060R,2026-06-10T13:44:30.594912,13.16594980,.00018685,87.9100,230.0979,94.3348,265.7996,0,U,48982,999,23872,.13476847E-3,.64E-6,0
ONEWEB-0266,2021-060T,2026-06-10T14:15:16.794432,13.16593734,.00021187,87.9103,230.0842,99.6418,260.4952,0,U,48984,999,23871,-.36829766E-4,-.1E-7,0
ONEWEB-0267,2021-060U,2026-06-10T14:31:14.542752,13.16594355,.00018377,87.9100,230.0784,97.4045,262.7295,0,U,48985,999,23872,-.21866787E-3,-.71E-6,0
ONEWEB-0268,2021-060V,2026-06-10T13:45:37.865952,13.16595759,.00020586,87.9104,230.0945,95.1949,264.9417,0,U,48986,999,23898,.152473E-3,.71E-6,0
ONEWEB-0269,2021-060W,2026-06-10T15:07:43.178304,13.16594139,.00021853,87.9091,230.0864,95.3385,264.7996,0,U,48987,999,23876,.86287674E-4,.46E-6,0
ONEWEB-0270,2021-060X,2026-06-10T13:43:21.880128,13.16594891,.00017492,87.9102,230.0965,106.2830,253.8494,0,U,48988,999,23879,.34236914E-3,.144E-5,0
ONEWEB-0271,2021-060Y,2026-06-10T15:14:33.663840,13.16594113,.00017734,87.9099,230.0741,99.9956,260.1375,0,U,48989,999,23880,.18086945E-3,.82E-6,0
ONEWEB-0272,2021-060Z,2026-06-10T13:57:01.149120,13.16592898,.00019056,87.9102,230.0966,90.3956,269.7393,0,U,48990,999,23874,.12965711E-4,.18E-6,0
ONEWEB-0273,2021-060AA,2026-06-10T14:28:57.712800,13.16594483,.0001908,87.9104,230.0911,100.8558,259.2788,0,U,48991,999,23872,-.81352636E-4,-.18E-6,0
ONEWEB-0274,2021-060AB,2026-06-10T15:05:25.686528,13.16593243,.00020026,87.9090,230.0894,89.5215,270.6145,0,U,48992,999,23876,.14966094E-3,.7E-6,0
