ONEWEB-0236             
1 48797U 21045AG  26161.55885112  .00000124  00000+0  29417-3 0  9990
2 48797  87.8998 260.5270 0002095 103.0087 257.1278 13.15548052243389
ONEWEB-0248             
1 48798U 21045AH  26161.57151581  .00000107  00000+0  25105-3 0  9990
2 48798  87.9009 260.5074 0001615 113.0779 247.0522 13.15547514243542
ONEWEB-0225             
1 48799U 21045AJ  26161.59371360 -.00000009  00000+0 -57284-4 0  9999
2 48799  87.9007 260.5112 0001378 104.1013 256.0270 13.15548940243557
ONEWEB-0215             
1 48800U 21045AK  26161.56358265 -.00000165  00000+0 -47313-3 0  9992
2 48800  87.9011 260.4994 0001290 112.7486 247.3780 13.15548533243427
ONEWEB-0216             
1 48801U 21045AL  26161.57311693  .00000122  00000+0  28916-3 0  9997
2 48801  87.9008 260.5126 0001978  98.8385 261.2970 13.15548675243431
ONEWEB-0239             
1 48802U 21045AM  26161.50180732  .00000197  00000+0  49033-3 0  9994
2 48802  87.8999 260.5337 0001433 123.0504 237.0764 13.15548406243461
ONEWEB-0249             
1 48967U 21060A   26161.59315449 -.00000029  00000+0 -10915-3 0  9990
2 48967  87.9101 230.0874 0002009 101.9869 258.1488 13.16595081238740
ONEWEB-0250             
1 48968U 21060B   26161.59090413  .00000016  00000+0  72891-5 0  9999
2 48968  87.9100 227.8656 0002629 119.5986 240.5412 13.25833207239349
ONEWEB-0252             
1 48970U 21060D   26161.62402537  .00000009  00000+0 -99436-5 0  9997
2 48970  87.9099 230.0734 0001954  92.4622 267.6733 13.16593187238792
ONEWEB-0253             
1 48971U 21060E   26161.61294151 -.00000031  00000+0 -11367-3 0  9999
2 48971  87.9099 230.0812 0002040 102.4348 257.7011 13.16593442238720
ONEWEB-0254             
1 48972U 21060F   26161.16646429  .00000082  00000+0  18068-3 0  9998
2 48972  87.9102 230.1671 0001810 106.2333 253.8997 13.16593876238664
ONEWEB-0255             
1 48973U 21060G   26161.58444824 -.00000011  00000+0 -63437-4 0  9995
2 48973  87.9100 230.0910 0001865 101.2140 258.9201 13.16594588238798
ONEWEB-0256             
1 48974U 21060H   26161.61055916 -.00000042  00000+0 -14280-3 0  9995
2 48974  87.9093 230.0902 0002119  96.1401 263.9972 13.16593181238762
ONEWEB-0257             
1 48975U 21060J   26161.56702672  .00000066  00000+0  13981-3 0  9999
2 48975  87.9101 230.0857 0001894  97.4096 262.7250 13.16594301238711
ONEWEB-0258             
1 48976U 21060K   26161.56861235  .00000049  00000+0  95764-4 0  9992
2 48976  87.9100 230.0972 0002031 100.6584 259.4776 13.16594109238725
ONEWEB-0259             
1 48977U 21060L   26161.56228306  .00000063  00000+0  13223-3 0  9994
2 48977  87.9100 230.0978 0001975 104.1002 256.0349 13.16594226238754
ONEWEB-0260             
1 48978U 21060M   26161.62956288  .00000074  00000+0  15914-3 0  9990
2 48978  87.9093 230.0864 0002070  87.7413 272.3955 13.16593572238745
ONEWEB-0261             
1 48979U 21060N   26161.59947176 -.00000083  00000+0 -24949-3 0  9993
2 48979  87.9096 230.0920 0001692  97.2954 262.8369 13.16595678238794
ONEWEB-0262             
1 48980U 21060P   26161.57969645  .00000026  00000+0  34871-4 0  9999
2 48980  87.9100 230.0818 0001967 106.8971 253.2376 13.16594624238757
ONEWEB-0263             
1 48981U 21060Q   26161.61136048 -.00000070  00000+0 -21646-3 0  9994
2 48981  87.9097 230.0872 0001701 101.7519 258.3803 13.16594411238723
ONEWEB-0264             
1 48982U 21060R   26161.57257633  .00000064  00000+0  13477-3 0  9998
2 48982  87.9100 230.0979 0001868  94.3348 265.7996 13.16594980238724
ONEWEB-0266             
1 48984U 21060T   26161.59394438 -.00000001  00000+0 -36830-4 0  9999
2 48984  87.9103 230.0842 0002118  99.6418 260.4952 13.16593734238712
ONEWEB-0267             
1 48985U 21060U   26161.60502943 -.00000071  00000+0 -21867-3 0  9994
2 48985  87.9100 230.0784 0001837  97.4045 262.7295 13.16594355238720
ONEWEB-0268             
1 48986U 21060V   26161.57335493  .00000071  00000+0  15247-3 0  9998
2 48986  87.9104 230.0945 0002058  95.1949 264.9417 13.16595759238985
ONEWEB-0269             
1 48987U 21060W   26161.63036086  .00000046  00000+0  86288-4 0  9998
2 48987  87.9091 230.0864 0002185  95.3385 264.7996 13.16594139238765
ONEWEB-0270             
1 48988U 21060X   26161.57178102  .00000144  00000+0  34237-3 0  9993
2 48988  87.9102 230.0965 0001749 106.2830 253.8494 13.16594891238793
ONEWEB-0271             
1 48989U 21060Y   26161.63511185  .00000082  00000+0  18087-3 0  9999
2 48989  87.9099 230.0741 0001773  99.9956 260.1375 13.16594113238803
ONEWEB-0272             
1 48990U 21060Z   26161.58126330  .00000018  00000+0  12966-4 0  9999
2 48990  87.9102 230.0966 0001905  90.3956 269.7393 13.16592898238747
ONEWEB-0273             
1 48991U 21060AA  26161.60344575 -.00000018  00000+0 -81353-4 0  9994
2 48991  87.9104 230.0911 0001908 100.8558 259.2788 13.16594483238720
ONEWEB-0274             
1 48992U 21060AB  26161.62876952  .00000070  00000+0  14966-3 0  9997
2 48992  87.9090 230.0894 0002002  89.5215 270.6145 13.16593243238765
